{
    "links": {
        "self": "http://www.neowsapp.com/rest/v1/neo/3775038?api_key=iIulBulltgU6a56xZRHN4H3l9WmuAYTsLGpBGhQ2"
    },
    "id": "3775038",
    "neo_reference_id": "3775038",
    "name": "(2017 KQ27)",
    "designation": "2017 KQ27",
    "nasa_jpl_url": "http://ssd.jpl.nasa.gov/sbdb.cgi?sstr=3775038",
    "absolute_magnitude_h": 25.7,
    "estimated_diameter": {
        "kilometers": {
            "estimated_diameter_min": 0.0192555078,
            "estimated_diameter_max": 0.0430566244
        },
        "meters": {
            "estimated_diameter_min": 19.2555078188,
            "estimated_diameter_max": 43.0566244241
        },
        "miles": {
            "estimated_diameter_min": 0.0119648141,
            "estimated_diameter_max": 0.0267541378
        },
        "feet": {
            "estimated_diameter_min": 63.1742402722,
            "estimated_diameter_max": 141.2618956756
        }
    },
    "is_potentially_hazardous_asteroid": false,
    "close_approach_data": [
        {
            "close_approach_date": "2017-06-06",
            "close_approach_date_full": "2017-Jun-06 04:22",
            "epoch_date_close_approach": 1496722920000,
            "relative_velocity": {
                "kilometers_per_second": "10.6698214369",
                "kilometers_per_hour": "38411.3571729624",
                "miles_per_hour": "23867.3235722777"
            },
            "miss_distance": {
                "astronomical": "0.0034466609",
                "lunar": "1.3407510901",
                "kilometers": "515613.129252283",
                "miles": "320387.1419681854"
            },
            "orbiting_body": "Moon"
        },
        {
            "close_approach_date": "2017-06-06",
            "close_approach_date_full": "2017-Jun-06 15:00",
            "epoch_date_close_approach": 1496761200000,
            "relative_velocity": {
                "kilometers_per_second": "10.7128281048",
                "kilometers_per_hour": "38566.1811771997",
                "miles_per_hour": "23963.5251875772"
            },
            "miss_distance": {
                "astronomical": "0.0026149006",
                "lunar": "1.0171963334",
                "kilometers": "391183.560021722",
                "miles": "243070.1928828836"
            },
            "orbiting_body": "Earth"
        }
    ],
    "orbital_data": {
        "orbit_id": "11",
        "orbit_determination_date": "2017-06-20 06:20:41",
        "first_observation_date": "2017-05-25",
        "last_observation_date": "2017-06-05",
        "data_arc_in_days": 11,
        "observations_used": 63,
        "orbit_uncertainty": "7",
        "minimum_orbit_intersection": ".0025593",
        "jupiter_tisserand_invariant": "3.308",
        "epoch_osculation": "2459000.5",
        "eccentricity": ".5896697809480566",
        "semi_major_axis": "2.333577255744148",
        "inclination": "4.773165470966182",
        "ascending_node_longitude": "256.8324805890926",
        "orbital_period": "1302.062111987158",
        "perihelion_distance": ".9575372665241292",
        "perihelion_argument": "30.14895962813158",
        "aphelion_distance": "3.709617244964166",
        "perihelion_time": "2459238.307738687792",
        "mean_anomaly": "294.2498448119736",
        "mean_motion": ".2764845061427842",
        "equinox": "J2000",
        "orbit_class": {
            "orbit_class_type": "APO",
            "orbit_class_description": "Near-Earth asteroid orbits which cross the Earth’s orbit similar to that of 1862 Apollo",
            "orbit_class_range": "a (semi-major axis) > 1.0 AU; q (perihelion) < 1.017 AU"
        }
    },
    "is_sentry_object": false
}